[{"OBJECT_NAME":"STARLINK-32394","OBJECT_ID":"2024-202J","EPOCH":"2026-03-09T12:17:11.097600","MEAN_MOTION":15.27570555,"ECCENTRICITY":0.00023213,"INCLINATION":43.0064,"RA_OF_ASC_NODE":238.7215,"ARG_OF_PERICENTER":285.2076,"MEAN_ANOMALY":74.8519,"EPHEMERIS_TYPE":0,"CLASSIFICATION_TYPE":"U","NORAD_CAT_ID":61853,"ELEMENT_SET_NO":999,"REV_AT_EPOCH":7530,"BSTAR":-1.0569453e-5,"MEAN_MOTION_DOT":-5.53e-6,"MEAN_MOTION_DDOT":0},{"OBJECT_NAME":"OBJECT N","OBJECT_ID":"2019-093N","EPOCH":"2026-03-09T21:41:56.087232","MEAN_MOTION":15.29897693,"ECCENTRICITY":0.0006278,"INCLINATION":98.0505,"RA_OF_ASC_NODE":226.9456,"ARG_OF_PERICENTER":33.3806,"MEAN_ANOMALY":326.7828,"EPHEMERIS_TYPE":0,"CLASSIFICATION_TYPE":"U","NORAD_CAT_ID":44891,"ELEMENT_SET_NO":999,"REV_AT_EPOCH":33957,"BSTAR":0.0010567776,"MEAN_MOTION_DOT":0.00030617,"MEAN_MOTION_DDOT":0}]
